{
  "links" : {
    "next" : "https://api.nasa.gov/neo/rest/v1/feed?start_date=2011-06-09&end_date=2011-06-09&detailed=true&api_key=t0TVs3DtDT2H8Oy2Zy8m2eVrNsAVKAexjcZXUckd",
    "prev" : "https://api.nasa.gov/neo/rest/v1/feed?start_date=2011-06-07&end_date=2011-06-07&detailed=true&api_key=t0TVs3DtDT2H8Oy2Zy8m2eVrNsAVKAexjcZXUckd",
    "self" : "https://api.nasa.gov/neo/rest/v1/feed?start_date=2011-06-08&end_date=2011-06-08&detailed=true&api_key=t0TVs3DtDT2H8Oy2Zy8m2eVrNsAVKAexjcZXUckd"
  },
  "element_count" : 3,
  "near_earth_objects" : {
    "2011-06-08" : [ {
      "links" : {
        "self" : "https://api.nasa.gov/neo/rest/v1/neo/3384113?api_key=t0TVs3DtDT2H8Oy2Zy8m2eVrNsAVKAexjcZXUckd"
      },
      "neo_reference_id" : "3384113",
      "name" : "(2007 RT9)",
      "nasa_jpl_url" : "http://ssd.jpl.nasa.gov/sbdb.cgi?sstr=3384113",
      "absolute_magnitude_h" : 19.0,
      "estimated_diameter" : {
        "kilometers" : {
          "estimated_diameter_min" : 0.4212646106,
          "estimated_diameter_max" : 0.9419763057
        },
        "meters" : {
          "estimated_diameter_min" : 421.2646105562,
          "estimated_diameter_max" : 941.9763057186
        },
        "miles" : {
          "estimated_diameter_min" : 0.2617616123,
          "estimated_diameter_max" : 0.5853167591
        },
        "feet" : {
          "estimated_diameter_min" : 1382.1017848971,
          "estimated_diameter_max" : 3090.4735428537
        }
      },
      "is_potentially_hazardous_asteroid" : false,
      "close_approach_data" : [ {
        "close_approach_date" : "2011-06-08",
        "epoch_date_close_approach" : 1307516400000,
        "relative_velocity" : {
          "kilometers_per_second" : "13.9329582529",
          "kilometers_per_hour" : "50158.6497106128",
          "miles_per_hour" : "31166.6343160194"
        },
        "miss_distance" : {
          "astronomical" : "0.3755482963",
          "lunar" : "146.0882873535",
          "kilometers" : "56181228",
          "miles" : "34909396"
        },
        "orbiting_body" : "Earth"
      } ],
      "orbital_data" : {
        "orbit_id" : "16",
        "orbit_determination_date" : "2017-04-06 09:06:06",
        "orbit_uncertainty" : "1",
        "minimum_orbit_intersection" : ".234375",
        "jupiter_tisserand_invariant" : "3.978",
        "epoch_osculation" : "2458000.5",
        "eccentricity" : ".586111914502141",
        "semi_major_axis" : "1.665481921354667",
        "inclination" : "21.31193327166647",
        "ascending_node_longitude" : "163.9848655793731",
        "orbital_period" : "785.0698720100336",
        "perihelion_distance" : ".689323123860779",
        "perihelion_argument" : "24.65272626080445",
        "aphelion_distance" : "2.641640718848555",
        "perihelion_time" : "2458034.503668239917",
        "mean_anomaly" : "344.4073489471346",
        "mean_motion" : ".4585579103657146",
        "equinox" : "J2000"
      }
    }, {
      "links" : {
        "self" : "https://api.nasa.gov/neo/rest/v1/neo/3441849?api_key=t0TVs3DtDT2H8Oy2Zy8m2eVrNsAVKAexjcZXUckd"
      },
      "neo_reference_id" : "3441849",
      "name" : "(2008 YQ2)",
      "nasa_jpl_url" : "http://ssd.jpl.nasa.gov/sbdb.cgi?sstr=3441849",
      "absolute_magnitude_h" : 24.8,
      "estimated_diameter" : {
        "kilometers" : {
          "estimated_diameter_min" : 0.0291443905,
          "estimated_diameter_max" : 0.0651688382
        },
        "meters" : {
          "estimated_diameter_min" : 29.1443904535,
          "estimated_diameter_max" : 65.1688382168
        },
        "miles" : {
          "estimated_diameter_min" : 0.018109479,
          "estimated_diameter_max" : 0.0404940262
        },
        "feet" : {
          "estimated_diameter_min" : 95.6180819754,
          "estimated_diameter_max" : 213.8085311752
        }
      },
      "is_potentially_hazardous_asteroid" : false,
      "close_approach_data" : [ {
        "close_approach_date" : "2011-06-08",
        "epoch_date_close_approach" : 1307516400000,
        "relative_velocity" : {
          "kilometers_per_second" : "12.4903363897",
          "kilometers_per_hour" : "44965.2110029704",
          "miles_per_hour" : "27939.6334701512"
        },
        "miss_distance" : {
          "astronomical" : "0.2411230624",
          "lunar" : "93.796875",
          "kilometers" : "36071496",
          "miles" : "22413790"
        },
        "orbiting_body" : "Earth"
      } ],
      "orbital_data" : {
        "orbit_id" : "8",
        "orbit_determination_date" : "2017-04-06 09:01:52",
        "orbit_uncertainty" : "7",
        "minimum_orbit_intersection" : ".0206456",
        "jupiter_tisserand_invariant" : "5.823",
        "epoch_osculation" : "2458000.5",
        "eccentricity" : ".2553774008214655",
        "semi_major_axis" : "1.034323364237554",
        "inclination" : "23.2904268212569",
        "ascending_node_longitude" : "91.83429010717514",
        "orbital_period" : "384.2226202704979",
        "perihelion_distance" : ".7701805518696538",
        "perihelion_argument" : "99.02036170600806",
        "aphelion_distance" : "1.298466176605455",
        "perihelion_time" : "2457970.895088953263",
        "mean_anomaly" : "27.73852296702942",
        "mean_motion" : ".9369568083902898",
        "equinox" : "J2000"
      }
    }, {
      "links" : {
        "self" : "https://api.nasa.gov/neo/rest/v1/neo/3619321?api_key=t0TVs3DtDT2H8Oy2Zy8m2eVrNsAVKAexjcZXUckd"
      },
      "neo_reference_id" : "3619321",
      "name" : "(2012 XN2)",
      "nasa_jpl_url" : "http://ssd.jpl.nasa.gov/sbdb.cgi?sstr=3619321",
      "absolute_magnitude_h" : 21.4,
      "estimated_diameter" : {
        "kilometers" : {
          "estimated_diameter_min" : 0.1394938229,
          "estimated_diameter_max" : 0.3119176705
        },
        "meters" : {
          "estimated_diameter_min" : 139.4938229344,
          "estimated_diameter_max" : 311.9176705226
        },
        "miles" : {
          "estimated_diameter_min" : 0.0866774163,
          "estimated_diameter_max" : 0.1938165949
        },
        "feet" : {
          "estimated_diameter_min" : 457.6569140361,
          "estimated_diameter_max" : 1023.3519701574
        }
      },
      "is_potentially_hazardous_asteroid" : false,
      "close_approach_data" : [ {
        "close_approach_date" : "2011-06-08",
        "epoch_date_close_approach" : 1307516400000,
        "relative_velocity" : {
          "kilometers_per_second" : "20.3660134505",
          "kilometers_per_hour" : "73317.648421922",
          "miles_per_hour" : "45556.7354874993"
        },
        "miss_distance" : {
          "astronomical" : "0.2888251111",
          "lunar" : "112.352973938",
          "kilometers" : "43207624",
          "miles" : "26847972"
        },
        "orbiting_body" : "Earth"
      } ],
      "orbital_data" : {
        "orbit_id" : "11",
        "orbit_determination_date" : "2017-04-06 08:47:50",
        "orbit_uncertainty" : "8",
        "minimum_orbit_intersection" : ".115219",
        "jupiter_tisserand_invariant" : "5.442",
        "epoch_osculation" : "2456267.5",
        "eccentricity" : ".3722578918006306",
        "semi_major_axis" : "1.098206515606398",
        "inclination" : "34.32954398821524",
        "ascending_node_longitude" : "246.2131272045458",
        "orbital_period" : "420.3629691356527",
        "perihelion_distance" : ".6893904733450439",
        "perihelion_argument" : "63.76893365848303",
        "aphelion_distance" : "1.507022557867752",
        "perihelion_time" : "2456178.944046551807",
        "mean_anomaly" : "75.83956147921687",
        "mean_motion" : ".8564027434201195",
        "equinox" : "J2000"
      }
    } ]
  }
}